[{"OBJECT_NAME":"STARLINK-30960","OBJECT_ID":"2023-183V","EPOCH":"2026-03-09T22:00:01.999584","MEAN_MOTION":15.71845093,"ECCENTRICITY":0.00290225,"INCLINATION":42.9869,"RA_OF_ASC_NODE":306.2273,"ARG_OF_PERICENTER":250.1506,"MEAN_ANOMALY":28.4078,"EPHEMERIS_TYPE":0,"CLASSIFICATION_TYPE":"U","NORAD_CAT_ID":58456,"ELEMENT_SET_NO":999,"REV_AT_EPOCH":592,"BSTAR":0.0060496308,"MEAN_MOTION_DOT":0.00921154,"MEAN_MOTION_DDOT":0},{"OBJECT_NAME":"AZUR (GRS A)","OBJECT_ID":"1969-097A","EPOCH":"2026-03-09T21:41:10.048992","MEAN_MOTION":15.2598686,"ECCENTRICITY":0.02451425,"INCLINATION":102.6572,"RA_OF_ASC_NODE":142.7505,"ARG_OF_PERICENTER":125.1196,"MEAN_ANOMALY":237.3267,"EPHEMERIS_TYPE":0,"CLASSIFICATION_TYPE":"U","NORAD_CAT_ID":4221,"ELEMENT_SET_NO":999,"REV_AT_EPOCH":71023,"BSTAR":0.0010311441,"MEAN_MOTION_DOT":0.00065195,"MEAN_MOTION_DDOT":0}]
